NORAD_CAT_ID,OBJECT_NAME,OBJECT_TYPE,EPOCH,MEAN_MOTION,ECCENTRICITY,INCLINATION,RA_OF_ASC_NODE,ARG_OF_PERICENTER,MEAN_ANOMALY,BSTAR,MEAN_MOTION_DOT,MEAN_MOTION_DDOT,TLE_LINE0,TLE_LINE1,TLE_LINE2,SEMIMAJOR_AXIS,PERIOD,APOGEE,PERIGEE,DECAYED
53602.0,STARLINK-4648,PAYLOAD,2022-11-21 14:00:01,15.08822209,0.0001591,53.2161,244.7755,57.3385,272.4871,0.0024481,0.0003887,0.0,0 STARLINK-4648,1 53602U 22104Q   22325.58334491  .00038870  00000-0  24481-2 0  9993,2 53602  53.2161 244.7755 0001591  57.3385 272.4871 15.08822209  1309,6917.935,95.439,540.9,538.6990000000002,0.0
53602.0,STARLINK-4648,PAYLOAD,2022-11-21 22:00:00,15.08872284,0.0001653,53.2163,243.2796,57.2401,284.1689,-0.0022661,-0.00036204,0.0,0 STARLINK-4648,1 53602U 22104Q   22325.91667824 -.00036204  00000-0 -22661-2 0  9998,2 53602  53.2163 243.2796 0001653  57.2401 284.1689 15.08872284 13260,6917.781999999997,95.436,540.79,538.503,0.0
53602.0,STARLINK-4648,PAYLOAD,2022-11-22 00:00:00,15.08868528,0.0001709,53.2162,242.9061,55.0949,19.2203,-0.0024391,-0.00038927,0.0,0 STARLINK-4648,1 53602U 22104Q   22326.00001157 -.00038927  00000-0 -24391-2 0  9996,2 53602  53.2162 242.9061 0001709  55.0949  19.2203 15.08868528  1302,6917.793000000002,95.436,540.84,538.476,0.0
53602.0,STARLINK-4648,PAYLOAD,2022-11-22 14:00:01,15.08810436,0.0001503,53.2165,240.2862,55.6289,309.0776,0.0020651,0.00032704,0.0,0 STARLINK-4648,1 53602U 22104Q   22326.58335648  .00032704  00000-0  20651-2 0  9994,2 53602  53.2165 240.2862 0001503  55.6289 309.0776 15.08810436  1300,6917.971,95.439,540.876,538.7959999999998,0.0
53602.0,STARLINK-4648,PAYLOAD,2022-11-22 22:00:00,15.08862061,0.0001541,53.2167,238.7907,53.3034,322.9081,-0.0038348,-0.0006083999999999,0.0,0 STARLINK-4648,1 53602U 22104Q   22326.91667824 -.00060840  00000-0 -38348-2 0  9991,2 53602  53.2167 238.7907 0001541  53.3034 322.9081 15.08862061 13418,6917.813,95.436,540.744,538.612,0.0
53602.0,STARLINK-4648,PAYLOAD,2022-11-23 14:00:01,15.08802914,0.0001409,53.2164,235.7973,53.9884,345.3992,0.0030443,0.00048446,0.0,0 STARLINK-4648,1 53602U 22104Q   22327.58334491  .00048446  00000-0  30443-2 0  9990,2 53602  53.2164 235.7973 0001409  53.9884 345.3992 15.08802914 13519,6917.994000000002,95.44,540.8330000000002,538.884,0.0
53602.0,STARLINK-4648,PAYLOAD,2022-11-23 22:00:00,15.08848807,0.0001522,53.2165,234.3021,53.0221,357.9308,-0.001435,-0.00023059,0.0,0 STARLINK-4648,1 53602U 22104Q   22327.91667824 -.00023059  00000-0 -14350-2 0  9990,2 53602  53.2165 234.3021 0001522  53.0221 357.9308 15.08848807  1306,6917.853,95.437,540.771,538.6659999999998,0.0
53602.0,STARLINK-4648,PAYLOAD,2022-11-24 08:00:01,15.08853195,0.00016,53.2159,232.4319,49.8253,105.6167,-0.00071418,-0.0001164,0.0,0 STARLINK-4648,1 53602U 22104Q   22328.33334491 -.00011640  00000-0 -71418-3 0  9990,2 53602  53.2159 232.4319 0001600  49.8253 105.6167 15.08853195 13628,6917.84,95.437,540.812,538.5980000000002,0.0
53602.0,STARLINK-4648,PAYLOAD,2022-11-24 14:00:01,15.0883687,0.0001478,53.2159,231.3085,56.6378,17.515,0.00061018,9.436e-05,0.0,0 STARLINK-4648,1 53602U 22104Q   22328.58334491  .00009436  00000-0  61018-3 0  9990,2 53602  53.2159 231.3085 0001478  56.6378  17.5150 15.08836870  1309,6917.89,95.438,540.7769999999998,538.732,0.0
53602.0,STARLINK-4648,PAYLOAD,2022-11-24 22:00:00,15.08841292,0.0001669,53.2157,229.8134,57.2687,28.481,-0.0015796,-0.0002534,0.0,0 STARLINK-4648,1 53602U 22104Q   22328.91667824 -.00025340  00000-0 -15796-2 0  9991,2 53602  53.2157 229.8134 0001669  57.2687  28.4810 15.08841292  1304,6917.876,95.437,540.896,538.587,0.0
53602.0,STARLINK-4648,PAYLOAD,2022-11-25 14:00:01,15.08820524,0.0001592,53.2149,226.8196,60.89100000000001,48.0449,0.0031547,0.00050251,0.0,0 STARLINK-4648,1 53602U 22104Q   22329.58334491  .00050251  00000-0  31547-2 0  9995,2 53602  53.2149 226.8196 0001592  60.8910  48.0449 15.08820524 13814,6917.94,95.439,540.906,538.7040000000002,0.0
53602.0,STARLINK-4648,PAYLOAD,2022-11-26 00:00:00,15.08863609,0.0001746,53.2147,224.9509,56.9665,156.4708,-0.00098757,-0.00015981,0.0,0 STARLINK-4648,1 53602U 22104Q   22330.00001157 -.00015981  00000-0 -98757-3 0  9994,2 53602  53.2147 224.9509 0001746  56.9665 156.4708 15.08863609  1307,6917.808000000001,95.436,540.881,538.465,0.0
53602.0,STARLINK-4648,PAYLOAD,2022-11-26 06:00:00,15.08861023,0.0001724,53.2142,223.8285,53.2224,78.9302,-0.001041,-0.00016827,0.0,0 STARLINK-4648,1 53602U 22104Q   22330.25001157 -.00016827  00000-0 -10410-2 0  9990,2 53602  53.2142 223.8285 0001724  53.2224  78.9302 15.08861023 13914,6917.816,95.436,540.874,538.488,0.0
53602.0,STARLINK-4648,PAYLOAD,2022-11-26 14:00:01,15.08834614,0.0001607,53.2141,222.3304,60.4715,83.2974,0.001477,0.00023293,0.0,0 STARLINK-4648,1 53602U 22104Q   22330.58334491  .00023293  00000-0  14770-2 0  9992,2 53602  53.2141 222.3304 0001607  60.4715  83.2974 15.08834614  1304,6917.897,95.438,540.874,538.65,0.0
53602.0,STARLINK-4648,PAYLOAD,2022-11-26 22:00:00,15.08850129,0.0001773,53.2141,220.8353,58.5866,96.7844,-0.0025430999999999,-0.00040546,0.0,0 STARLINK-4648,1 53602U 22104Q   22330.91667824 -.00040546  00000-0 -25431-2 0  9996,2 53602  53.2141 220.8353 0001773  58.5866  96.7844 15.08850129  1304,6917.849,95.437,540.941,538.488,0.0
53602.0,STARLINK-4648,PAYLOAD,2022-11-27 14:00:01,15.08798429,0.0001672,53.2138,217.841,60.7116,117.8283,0.0027975,0.00044465,0.0,0 STARLINK-4648,1 53602U 22104Q   22331.58334491  .00044465  00000-0  27975-2 0  9998,2 53602  53.2138 217.8410 0001672  60.7116 117.8283 15.08798429  1307,6918.007,95.44,541.029,538.716,0.0
53602.0,STARLINK-4648,PAYLOAD,2022-11-27 22:00:00,15.0883313,0.000183,53.2139,216.3461,57.3703,132.7352,-0.00082872,-0.00013451,0.0,0 STARLINK-4648,1 53602U 22104Q   22331.91667824 -.00013451  00000-0 -82872-3 0  9995,2 53602  53.2139 216.3461 0001830  57.3703 132.7352 15.08833130  1300,6917.901,95.438,541.0319999999998,538.5,0.0
53602.0,STARLINK-4648,PAYLOAD,2022-11-28 06:00:00,15.08852692,0.000183,53.2139,214.8497,53.9665,147.7156,-0.0023331,-0.00037241,0.0,0 STARLINK-4648,1 53602U 22104Q   22332.25001157 -.00037241  00000-0 -23331-2 0  9991,2 53602  53.2139 214.8497 0001830  53.9665 147.7156 15.08852692 14217,6917.842,95.437,540.9730000000002,538.441,0.0
53602.0,STARLINK-4648,PAYLOAD,2022-11-28 22:00:01,15.0882785,0.0001837,53.2142,211.8567,55.5884,169.3254,-0.00063876,-0.00010436,0.0,0 STARLINK-4648,1 53602U 22104Q   22332.91668981 -.00010436  00000-0 -63876-3 0  9994,2 53602  53.2142 211.8567 0001837  55.5884 169.3254 15.08827850 14312,6917.918000000002,95.438,541.053,538.512,0.0
53602.0,STARLINK-4648,PAYLOAD,2022-11-29 14:00:01,15.08820454,0.0001761999999999,53.2147,208.8622,60.3765,187.7067,0.0027017,0.00042949,0.0,0 STARLINK-4648,1 53602U 22104Q   22333.58335648  .00042949  00000-0  27017-2 0  9997,2 53602  53.2147 208.8622 0001762  60.3765 187.7067 15.08820454 14414,6917.94,95.439,541.024,538.586,0.0
53602.0,STARLINK-4648,PAYLOAD,2022-11-29 22:00:00,15.08849356,0.0001915,53.2149,207.3674,56.0767,203.5365,-0.00039987,-6.648e-05,0.0,0 STARLINK-4648,1 53602U 22104Q   22333.91667824 -.00006648  00000-0 -39987-3 0  9996,2 53602  53.2149 207.3674 0001915  56.0767 203.5365 15.08849356  1305,6917.852,95.437,541.0419999999998,538.3919999999998,0.0
53602.0,STARLINK-4648,PAYLOAD,2022-11-30 06:00:00,15.08878424,0.0001843,53.2149,205.8708,54.0852,217.1253,-0.0041619,-0.00065989,0.0,0 STARLINK-4648,1 53602U 22104Q   22334.25001157 -.00065989  00000-0 -41619-2 0  9992,2 53602  53.2149 205.8708 0001843  54.0852 217.1253 15.08878424 14511,6917.763000000001,95.435,540.903,538.3530000000002,0.0
53602.0,STARLINK-4648,PAYLOAD,2022-11-30 14:00:01,15.08816894,0.0001698,53.2153,204.3728,60.8039,222.0883,0.0027693,0.00044033,0.0,0 STARLINK-4648,1 53602U 22104Q   22334.58335648  .00044033  00000-0  27693-2 0  9994,2 53602  53.2153 204.3728 0001698  60.8039 222.0883 15.08816894  1302,6917.951,95.439,540.991,538.641,0.0
53602.0,STARLINK-4648,PAYLOAD,2022-11-30 22:00:00,15.08867083,0.0001814,53.2163,202.8788,58.1205,236.2923,-0.0045264,-0.00071664,0.0,0 STARLINK-4648,1 53602U 22104Q   22334.91667824 -.00071664  00000-0 -45264-2 0  9991,2 53602  53.2163 202.8788 0001814  58.1205 236.2923 15.08867083 14613,6917.7980000000025,95.436,540.9169999999998,538.408,0.0
53602.0,STARLINK-4648,PAYLOAD,2022-12-01 06:00:00,15.08872261,0.0001763,53.2154,201.3815,53.783,252.2126,-0.0045013999999999,-0.00071283,0.0,0 STARLINK-4648,1 53602U 22104Q   22335.25001157 -.00071283  00000-0 -45014-2 0  9990,2 53602  53.2154 201.3815 0001763  53.7830 252.2126 15.08872261 14668,6917.781999999997,95.436,540.866,538.427,0.0
53602.0,STARLINK-4648,PAYLOAD,2022-12-01 14:00:01,15.08811331,0.0001618,53.2155,199.8837,60.2546,257.3608,0.0027059,0.00043006,0.0,0 STARLINK-4648,1 53602U 22104Q   22335.58334491  .00043006  00000-0  27059-2 0  9995,2 53602  53.2155 199.8837 0001618  60.2546 257.3608 15.08811331  1309,6917.968000000003,95.439,540.952,538.714,0.0
53602.0,STARLINK-4648,PAYLOAD,2022-12-01 22:00:00,15.08832337,0.0001786,53.2154,198.3892,54.7919,274.3994,-0.00021102,-3.644e-05,0.0,0 STARLINK-4648,1 53602U 22104Q   22335.91667824 -.00003644  00000-0 -21102-3 0  9991,2 53602  53.2154 198.3892 0001786  54.7919 274.3994 15.08832337 14772,6917.904,95.438,541.004,538.533,0.0
53602.0,STARLINK-4648,PAYLOAD,2022-12-02 14:00:01,15.08838688,0.000161,53.2153,195.3948,61.846,290.5234,0.00054359,8.374e-05,0.0,0 STARLINK-4648,1 53602U 22104Q   22336.58334491  .00008374  00000-0  54359-3 0  9999,2 53602  53.2153 195.3948 0001610  61.8460 290.5234 15.08838688  1303,6917.884,95.438,540.863,538.636,0.0
53602.0,STARLINK-4648,PAYLOAD,2022-12-02 22:00:00,15.08824576,0.0001728,53.215,193.9003,55.0604,308.9108,-0.00095646,-0.00015472,0.0,0 STARLINK-4648,1 53602U 22104Q   22336.91667824 -.00015472  00000-0 -95646-3 0  9998,2 53602  53.2150 193.9003 0001728  55.0604 308.9108 15.08824576  1306,6917.928000000001,95.439,540.988,538.597,0.0
